NORAD_CAT_ID,OBJECT_NAME,OBJECT_TYPE,EPOCH,MEAN_MOTION,ECCENTRICITY,INCLINATION,RA_OF_ASC_NODE,ARG_OF_PERICENTER,MEAN_ANOMALY,BSTAR,MEAN_MOTION_DOT,MEAN_MOTION_DDOT,TLE_LINE0,TLE_LINE1,TLE_LINE2,SEMIMAJOR_AXIS,PERIOD,APOGEE,PERIGEE,DECAYED
54165.0,STARLINK-5279,PAYLOAD,2023-11-21 00:06:26,15.08848947,0.0001495,53.2151,183.5922,89.4663,270.6501,0.000197,2.849e-05,0.0,0 STARLINK-5279,1 54165U 22141J   23325.00447250  .00002849  00000-0  19700-3 0  9991,2 54165  53.2151 183.5922 0001495  89.4663 270.6501 15.08848947 58957,6917.853,95.437,540.752,538.684,0.0
54165.0,STARLINK-5279,PAYLOAD,2023-11-21 08:03:22,15.08840978,0.0001436,53.2161,182.1038,87.0664,273.0493,5.0362e-05,5.14e-06,0.0,0 STARLINK-5279,1 54165U 22141J   23325.33567649  .00000514  00000-0  50362-4 0  9999,2 54165  53.2161 182.1038 0001436  87.0664 273.0493 15.08840978 59001,6917.877,95.437,540.736,538.749,0.0
54165.0,STARLINK-5279,PAYLOAD,2023-11-21 14:24:55,15.08841806,0.0001678,53.2162,180.9136,87.8642,272.2543,4.6013e-05,4.44e-06,0.0,0 STARLINK-5279,1 54165U 22141J   23325.60063709  .00000444  00000-0  46013-4 0  9997,2 54165  53.2162 180.9136 0001678  87.8642 272.2543 15.08841806 59041,6917.875,95.437,540.901,538.579,0.0
54165.0,STARLINK-5279,PAYLOAD,2023-11-21 20:46:27,15.08842411,0.0001482,53.215,179.7239,88.9283,271.1879,3.0012e-05,1.9e-06,0.0,0 STARLINK-5279,1 54165U 22141J   23325.86559634  .00000190  00000-0  30012-4 0  9992,2 54165  53.2150 179.7239 0001482  88.9283 271.1879 15.08842411 59081,6917.873,95.437,540.763,538.713,0.0
54165.0,STARLINK-5279,PAYLOAD,2023-11-22 19:01:51,15.08850425,0.0001541,53.2166,175.5619,89.922,270.1949,0.00021156,3.082e-05,0.0,0 STARLINK-5279,1 54165U 22141J   23326.79295208  .00003082  00000-0  21156-3 0  9990,2 54165  53.2166 175.5619 0001541  89.9220 270.1949 15.08850425 59229,6917.849,95.437,540.78,538.647,0.0
54165.0,STARLINK-5279,PAYLOAD,2023-11-22 20:37:14,15.08854169,0.0001599,53.2161,175.2644,91.9829,268.1346,0.00024232,3.572e-05,0.0,0 STARLINK-5279,1 54165U 22141J   23326.85919059  .00003572  00000-0  24232-3 0  9996,2 54165  53.2161 175.2644 0001599  91.9829 268.1346 15.08854169 59238,6917.837,95.437,540.808,538.596,0.0
54165.0,STARLINK-5279,PAYLOAD,2023-11-23 14:06:29,15.08839951,0.0001506,53.2155,171.9941,87.969,272.1474,0.00012175,1.65e-05,0.0,0 STARLINK-5279,1 54165U 22141J   23327.58783769  .00001650  00000-0  12175-3 0  9992,2 54165  53.2155 171.9941 0001506  87.9690 272.1474 15.08839951 59344,6917.881,95.438,540.787,538.704,0.0
54165.0,STARLINK-5279,PAYLOAD,2023-11-23 18:52:38,15.08834356,0.0001511,53.2158,171.1006,94.4745,265.6419,-3.4645e-07,-2.93e-06,0.0,0 STARLINK-5279,1 54165U 22141J   23327.78656001 -.00000293  00000-0 -34645-6 0  9995,2 54165  53.2158 171.1006 0001511  94.4745 265.6419 15.08834356 59374,6917.898,95.438,540.808,538.717,0.0
54165.0,STARLINK-5279,PAYLOAD,2023-11-23 20:28:01,15.08832082,0.0001584,53.2163,170.8033,104.5438,255.5729,-4.1288e-05,-9.45e-06,0.0,0 STARLINK-5279,1 54165U 22141J   23327.85280063 -.00000945  00000-0 -41288-4 0  9997,2 54165  53.2163 170.8033 0001584 104.5438 255.5729 15.08832082 59385,6917.905,95.438,540.865,538.674,0.0
54165.0,STARLINK-5279,PAYLOAD,2023-11-24 13:57:16,15.08833867,0.0001422,53.215,167.5281,101.2074,258.9079,-5.4419e-05,-1.154e-05,0.0,0 STARLINK-5279,1 54165U 22141J   23328.58144323 -.00001154  00000-0 -54419-4 0  9999,2 54165  53.2150 167.5281 0001422 101.2074 258.9079 15.08833867 59499,6917.899,95.438,540.748,538.78,0.0
54165.0,STARLINK-5279,PAYLOAD,2023-11-24 18:43:25,15.08840085,0.0001345,53.2149,166.6373,92.0049,268.1097,-2.2078e-05,-6.39e-06,0.0,0 STARLINK-5279,1 54165U 22141J   23328.78016185 -.00000639  00000-0 -22078-4 0  9998,2 54165  53.2149 166.6373 0001345  92.0049 268.1097 15.08840085 59529,6917.88,95.438,540.676,538.815,0.0
54165.0,STARLINK-5279,PAYLOAD,2023-11-25 13:48:03,15.08840217,0.0001448,53.2154,163.0722,99.1965,260.9191,0.00028482,4.248e-05,0.0,0 STARLINK-5279,1 54165U 22141J   23329.57504497  .00004248  00000-0  28482-3 0  9996,2 54165  53.2154 163.0722 0001448  99.1965 260.9191 15.08840217 59648,6917.88,95.438,540.746,538.743,0.0
54165.0,STARLINK-5279,PAYLOAD,2023-11-25 18:34:13,15.08845772,0.0001482,53.2152,162.1803,102.3427,257.7731,0.00034671,5.235e-05,0.0,0 STARLINK-5279,1 54165U 22141J   23329.77376327  .00005235  00000-0  34671-3 0  9991,2 54165  53.2152 162.1803 0001482 102.3427 257.7731 15.08845772 59672,6917.863,95.437,540.753,538.703,0.0
54165.0,STARLINK-5279,PAYLOAD,2023-11-26 13:38:50,15.08846688,0.0001511,53.2148,158.6107,105.4768,254.6391,0.00015638,2.202e-05,0.0,0 STARLINK-5279,1 54165U 22141J   23330.56863979  .00002202  00000-0  15638-3 0  9997,2 54165  53.2148 158.6107 0001511 105.4768 254.6391 15.08846688 59797,6917.86,95.437,540.77,538.68,0.0
54165.0,STARLINK-5279,PAYLOAD,2023-11-26 20:00:23,15.08844692,0.0001367,53.2143,157.423,97.9127,262.202,9.1859e-05,1.174e-05,0.0,0 STARLINK-5279,1 54165U 22141J   23330.83360001  .00001174  00000-0  91859-4 0  9992,2 54165  53.2143 157.4230 0001367  97.9127 262.2020 15.08844692 59831,6917.866,95.437,540.677,538.785,0.0
54165.0,STARLINK-5279,PAYLOAD,2023-11-27 18:15:47,15.08834493,0.0001381,53.2146,153.2587,95.8902,264.2247,-8.8049e-05,-1.689e-05,0.0,0 STARLINK-5279,1 54165U 22141J   23331.76096629 -.00001689  00000-0 -88049-4 0  9997,2 54165  53.2146 153.2587 0001381  95.8902 264.2247 15.08834493 59973,6917.897,95.438,540.718,538.807,0.0
54165.0,STARLINK-5279,PAYLOAD,2023-11-27 21:26:33,15.08838069,0.0001383,53.2159,152.6638,97.1401,262.9748,-1.2468e-05,-4.86e-06,0.0,0 STARLINK-5279,1 54165U 22141J   23331.89344879 -.00000486  00000-0 -12468-4 0  9990,2 54165  53.2159 152.6638 0001383  97.1401 262.9748 15.08838069 59994,6917.886,95.438,540.708,538.795,0.0
54165.0,STARLINK-5279,PAYLOAD,2023-11-28 11:45:02,15.08838031,0.0001428,53.2165,149.9867,88.0169,272.0987,4.1197e-05,3.68e-06,0.0,0 STARLINK-5279,1 54165U 22141J   23332.48960845  .00000368  00000-0  41197-4 0  9991,2 54165  53.2165 149.9867 0001428  88.0169 272.0987 15.08838031 60082,6917.886,95.438,540.739,538.764,0.0
54165.0,STARLINK-5279,PAYLOAD,2023-11-28 19:41:57,15.08845356,0.0001408,53.2159,148.5015,86.8786,273.2368,8.9517e-05,1.137e-05,0.0,0 STARLINK-5279,1 54165U 22141J   23332.82080202  .00001137  00000-0  89517-4 0  9992,2 54165  53.2159 148.5015 0001408  86.8786 273.2368 15.08845356 60134,6917.864,95.437,540.703,538.755,0.0
54165.0,STARLINK-5279,PAYLOAD,2023-11-29 11:35:49,15.08829015,0.0001329,53.2158,145.5287,87.9686,272.1459,0.00023904,3.517e-05,0.0,0 STARLINK-5279,1 54165U 22141J   23333.48320644  .00003517  00000-0  23904-3 0  9993,2 54165  53.2158 145.5287 0001329  87.9686 272.1459 15.08829015 60238,6917.914,95.438,540.698,538.86,0.0
54165.0,STARLINK-5279,PAYLOAD,2023-11-29 17:57:21,15.08841014,0.0001411,53.2157,144.3388,86.7361,273.3792,0.00011084,1.477e-05,0.0,0 STARLINK-5279,1 54165U 22141J   23333.74816522  .00001477  00000-0  11084-3 0  9996,2 54165  53.2157 144.3388 0001411  86.7361 273.3792 15.08841014 60275,6917.877,95.437,540.718,538.766,0.0
54165.0,STARLINK-5279,PAYLOAD,2023-12-01 11:17:23,15.08839289,0.0001593,53.218,136.608,103.0386,257.0784,2.191e-05,6.1e-07,0.0,0 STARLINK-5279,1 54165U 22141J   23335.47040709  .00000061  00000-0  21910-4 0  9992,2 54165  53.2180 136.6080 0001593 103.0386 257.0784 15.08839289 60535,6917.883,95.438,540.85,538.646,0.0
54165.0,STARLINK-5279,PAYLOAD,2023-12-01 14:28:09,15.08839628,0.0001591,53.2179,136.0135,105.4029,254.7139,2.7538e-05,1.5e-06,0.0,0 STARLINK-5279,1 54165U 22141J   23335.60288633  .00000150  00000-0  27538-4 0  9998,2 54165  53.2179 136.0135 0001591 105.4029 254.7139 15.08839628 60553,6917.882,95.438,540.847,538.646,0.0
54165.0,STARLINK-5279,PAYLOAD,2023-12-02 14:18:55,15.08843505,0.0001695,53.2184,131.5525,112.2498,247.8674,9.3931e-05,1.207e-05,0.0,0 STARLINK-5279,1 54165U 22141J   23336.59647953  .00001207  00000-0  93931-4 0  9995,2 54165  53.2184 131.5525 0001695 112.2498 247.8674 15.08843505 60706,6917.87,95.437,540.907,538.562,0.0
54165.0,STARLINK-5279,PAYLOAD,2023-12-02 15:54:18,15.08844432,0.0001676,53.2182,131.2551,110.5969,249.5203,0.00010225,1.34e-05,0.0,0 STARLINK-5279,1 54165U 22141J   23336.66271878  .00001340  00000-0  10225-3 0  9994,2 54165  53.2182 131.2551 0001676 110.5969 249.5203 15.08844432 60711,6917.867,95.437,540.891,538.572,0.0
54165.0,STARLINK-5279,PAYLOAD,2023-12-03 14:09:44,15.08830989,0.0001542,53.2168,127.0851,106.5135,253.6027,-4.6751e-05,-1.032e-05,0.0,0 STARLINK-5279,1 54165U 22141J   23337.59009545 -.00001032  00000-0 -46751-4 0  9991,2 54165  53.2168 127.0851 0001542 106.5135 253.6027 15.08830989 60850,6917.908,95.438,540.84,538.706,0.0
54165.0,STARLINK-5279,PAYLOAD,2023-12-03 18:55:54,15.0882362,0.0001415,53.2175,126.1957,93.1218,266.9936,-9.518e-05,-1.802e-05,0.0,0 STARLINK-5279,1 54165U 22141J   23337.78882370 -.00001802  00000-0 -95180-4 0  9992,2 54165  53.2175 126.1957 0001415  93.1218 266.9936 15.08823620 60880,6917.93,95.439,540.774,538.817,0.0
54165.0,STARLINK-5279,PAYLOAD,2023-12-04 18:46:41,15.08823288,0.0001496,53.2178,121.7343,88.1229,271.9934,0.00016253,2.299e-05,0.0,0 STARLINK-5279,1 54165U 22141J   23338.78242205  .00002299  00000-0  16253-3 0  9992,2 54165  53.2178 121.7343 0001496  88.1229 271.9934 15.08823288 61030,6917.931,95.439,540.831,538.762,0.0
54165.0,STARLINK-5279,PAYLOAD,2023-12-04 20:22:05,15.08757231,0.0001889,53.2173,121.4391,88.8273,271.2936,0.0010354,0.00016192,0.0,0 STARLINK-5279,1 54165U 22141J   23338.84867852  .00016192  00000-0  10354-2 0  9992,2 54165  53.2173 121.4391 0001889  88.8273 271.2936 15.08757231 61047,6918.133,95.443,541.305,538.692,0.0
54165.0,STARLINK-5279,PAYLOAD,2023-12-05 13:51:17,15.08832142,0.0001123,53.2175,118.1693,82.929,277.1829,0.00038497,5.843e-05,0.0,0 STARLINK-5279,1 54165U 22141J   23339.57728864  .00005843  00000-0  38497-3 0  9992,2 54165  53.2175 118.1693 0001123  82.9290 277.1829 15.08832142 61155,6917.904,95.438,540.546,538.993,0.0
